NORAD_CAT_ID,OBJECT_NAME,OBJECT_TYPE,EPOCH,MEAN_MOTION,ECCENTRICITY,INCLINATION,RA_OF_ASC_NODE,ARG_OF_PERICENTER,MEAN_ANOMALY,BSTAR,MEAN_MOTION_DOT,MEAN_MOTION_DDOT,TLE_LINE0,TLE_LINE1,TLE_LINE2,SEMIMAJOR_AXIS,PERIOD,APOGEE,PERIGEE,DECAYED
55958.0,STARLINK-5928,PAYLOAD,2024-01-06 12:28:16,14.98332564,0.0002711,70.0007,104.3377,264.6691,95.4159,4.8169e-05,4.82e-06,0.0,0 STARLINK-5928,1 55958U 23037AW  24006.51963062  .00000482  00000-0  48169-4 0  9997,2 55958  70.0007 104.3377 0002711 264.6691  95.4159 14.98332564 46006,6950.185,96.107,573.934,570.166,0.0
55958.0,STARLINK-5928,PAYLOAD,2024-01-06 15:40:32,14.98330229,0.0002716,70.0006,104.0007,266.5935,93.4913,2.4922e-05,2.04e-06,0.0,0 STARLINK-5928,1 55958U 23037AW  24006.65315229  .00000204  00000-0  24922-4 0  9991,2 55958  70.0006 104.0007 0002716 266.5935  93.4913 14.98330229 45684,6950.192,96.107,573.945,570.17,0.0
55958.0,STARLINK-5928,PAYLOAD,2024-01-07 14:06:25,14.98328567,0.0002674,70.0014,101.645,256.7466,103.3395,2.2355e-05,1.74e-06,0.0,0 STARLINK-5928,1 55958U 23037AW  24007.58779119  .00000174  00000-0  22355-4 0  9990,2 55958  70.0014 101.6450 0002674 256.7466 103.3395 14.98328567 45824,6950.197,96.107,573.921,570.204,0.0
55958.0,STARLINK-5928,PAYLOAD,2024-01-07 15:42:33,14.98331598,0.0002733,70.0008,101.4755,266.1823,93.9024,4.85e-05,4.86e-06,0.0,0 STARLINK-5928,1 55958U 23037AW  24007.65454929  .00000486  00000-0  48500-4 0  9993,2 55958  70.0008 101.4755 0002733 266.1823  93.9024 14.98331598 46171,6950.188,96.107,573.952,570.153,0.0
55958.0,STARLINK-5928,PAYLOAD,2024-01-08 14:08:25,14.98329688,0.0002849,70.0005,99.1194,264.3349,95.7485,3.3057e-05,3.01e-06,0.0,0 STARLINK-5928,1 55958U 23037AW  24008.58918882  .00000301  00000-0  33057-4 0  9996,2 55958  70.0005  99.1194 0002849 264.3349  95.7485 14.98329688 45974,6950.194,96.107,574.039,570.079,0.0
55958.0,STARLINK-5928,PAYLOAD,2024-01-08 15:44:33,14.98330147,0.0002854,70.0005,98.9511,264.6536,95.4297,3.6084e-05,3.38e-06,0.0,0 STARLINK-5928,1 55958U 23037AW  24008.65594843  .00000338  00000-0  36084-4 0  9994,2 55958  70.0005  98.9511 0002854 264.6536  95.4297 14.98330147 46321,6950.192,96.107,574.041,570.074,0.0
55958.0,STARLINK-5928,PAYLOAD,2024-01-09 14:10:26,14.98333747,0.0002689,70.0005,96.5937,260.1611,99.9244,4.1431e-05,4.01e-06,0.0,0 STARLINK-5928,1 55958U 23037AW  24009.59058435  .00000401  00000-0  41431-4 0  9993,2 55958  70.0005  96.5937 0002689 260.1611  99.9244 14.98333747 46126,6950.181,96.107,573.915,570.177,0.0
55958.0,STARLINK-5928,PAYLOAD,2024-01-09 15:46:34,14.98334095,0.0002659,70.0006,96.4254,259.3162,100.7698,3.4037e-05,3.13e-06,0.0,0 STARLINK-5928,1 55958U 23037AW  24009.65734410  .00000313  00000-0  34037-4 0  9990,2 55958  70.0006  96.4254 0002659 259.3162 100.7698 14.98334095 46475,6950.18,96.107,573.893,570.197,0.0
55958.0,STARLINK-5928,PAYLOAD,2024-01-10 11:00:11,14.98328552,0.0002589,70.0006,94.4052,259.2206,100.8661,-1.9234e-05,-3.22e-06,0.0,0 STARLINK-5928,1 55958U 23037AW  24010.45846807 -.00000322  00000-0 -19234-4 0  9998,2 55958  70.0006  94.4052 0002589 259.2206 100.8661 14.98328552 46594,6950.197,96.107,573.862,570.263,0.0
55958.0,STARLINK-5928,PAYLOAD,2024-01-11 14:14:28,14.98334505,0.0002467,70.0007,91.5437,263.3802,96.7076,3.0594e-05,2.72e-06,0.0,0 STARLINK-5928,1 55958U 23037AW  24011.59338133  .00000272  00000-0  30594-4 0  9996,2 55958  70.0007  91.5437 0002467 263.3802  96.7076 14.98334505 46423,6950.179,96.107,573.759,570.329,0.0
55958.0,STARLINK-5928,PAYLOAD,2024-01-12 04:39:41,14.98326689,0.0002359,70.0009,90.0291,261.2537,98.8355,-1.0555e-06,-1.05e-06,0.0,0 STARLINK-5928,1 55958U 23037AW  24012.19422628 -.00000105  00000-0 -10555-5 0  9999,2 55958  70.0009  90.0291 0002359 261.2537  98.8355 14.98326689 46853,6950.203,96.107,573.708,570.429,0.0
55958.0,STARLINK-5928,PAYLOAD,2024-01-12 14:16:29,14.98322085,0.0002501,70.0007,89.0192,257.4641,102.6238,-5.8541e-05,-7.91e-06,0.0,0 STARLINK-5928,1 55958U 23037AW  24012.59479158 -.00000791  00000-0 -58541-4 0  9990,2 55958  70.0007  89.0192 0002501 257.4641 102.6238 14.98322085 46570,6950.217,96.108,573.821,570.344,0.0
55958.0,STARLINK-5928,PAYLOAD,2024-01-13 04:41:42,14.98331008,0.000266,70.0002,87.5038,262.9644,97.1212,-3.8179e-05,-5.48e-06,0.0,0 STARLINK-5928,1 55958U 23037AW  24013.19562641 -.00000548  00000-0 -38179-4 0  9992,2 55958  70.0002  87.5038 0002660 262.9644  97.1212 14.98331008 47001,6950.19,96.107,573.904,570.206,0.0
55958.0,STARLINK-5928,PAYLOAD,2024-01-13 14:18:30,14.98331233,0.0002758,69.9999,86.4938,261.8706,98.2141,2.59e-05,2.16e-06,0.0,0 STARLINK-5928,1 55958U 23037AW  24013.59618421  .00000216  00000-0  25900-4 0  9992,2 55958  69.9999  86.4938 0002758 261.8706  98.2141 14.98331233 46726,6950.189,96.107,573.971,570.137,0.0
55958.0,STARLINK-5928,PAYLOAD,2024-01-14 11:08:15,14.9832735,0.0002757,70.0002,84.3061,259.2772,100.8076,7.7385e-05,8.3e-06,0.0,0 STARLINK-5928,1 55958U 23037AW  24014.46406506  .00000830  00000-0  77385-4 0  9994,2 55958  70.0002  84.3061 0002757 259.2772 100.8076 14.98327350 47195,6950.201,96.107,573.982,570.15,0.0
55958.0,STARLINK-5928,PAYLOAD,2024-01-14 14:20:31,14.98329713,0.0002718,70.0003,83.9699,258.251,101.8344,0.00010275,1.133e-05,0.0,0 STARLINK-5928,1 55958U 23037AW  24014.59758290  .00001133  00000-0  10275-3 0  9999,2 55958  70.0003  83.9699 0002718 258.2510 101.8344 14.98329713 46872,6950.194,96.107,573.948,570.17,0.0
55958.0,STARLINK-5928,PAYLOAD,2024-01-15 11:10:15,14.98332295,0.000269,70.0003,81.7817,257.7191,102.3667,5.2458e-05,5.33e-06,0.0,0 STARLINK-5928,1 55958U 23037AW  24015.46546182  .00000533  00000-0  52458-4 0  9994,2 55958  70.0003  81.7817 0002690 257.7191 102.3667 14.98332295 47344,6950.186,96.107,573.92,570.181,0.0
55958.0,STARLINK-5928,PAYLOAD,2024-01-15 14:22:31,14.98349795,0.0002558,70.0004,81.4457,259.822,100.2651,-0.00018102,-2.253e-05,0.0,0 STARLINK-5928,1 55958U 23037AW  24015.59897573 -.00002253  00000-0 -18102-3 0  9991,2 55958  70.0004  81.4457 0002558 259.8220 100.2651 14.98349795 47029,6950.132,96.106,573.775,570.219,0.0
55958.0,STARLINK-5928,PAYLOAD,2024-01-16 11:12:17,14.98324672,0.0002356,70.0013,79.257,275.7849,84.3041,-7.1488e-05,-9.46e-06,0.0,0 STARLINK-5928,1 55958U 23037AW  24016.46687140 -.00000946  00000-0 -71488-4 0  9999,2 55958  70.0013  79.2570 0002356 275.7849  84.3041 14.98324672 47493,6950.209,96.107,573.712,570.437,0.0
55958.0,STARLINK-5928,PAYLOAD,2024-01-16 14:24:33,14.98324546,0.0002346,70.0014,78.9192,278.6261,81.4633,-6.7349e-05,-8.96e-06,0.0,0 STARLINK-5928,1 55958U 23037AW  24016.60039195 -.00000896  00000-0 -67349-4 0  9991,2 55958  70.0014  78.9192 0002346 278.6261  81.4633 14.98324546 47179,6950.21,96.107,573.705,570.444,0.0
55958.0,STARLINK-5928,PAYLOAD,2024-01-17 11:14:17,14.98333152,0.0002587,70.0004,76.7324,257.3709,102.7161,-2.4303e-05,-3.83e-06,0.0,0 STARLINK-5928,1 55958U 23037AW  24017.46826351 -.00000383  00000-0 -24303-4 0  9998,2 55958  70.0004  76.7324 0002587 257.3709 102.7161 14.98333152 47647,6950.183,96.107,573.846,570.25,0.0
55958.0,STARLINK-5928,PAYLOAD,2024-01-17 12:50:25,14.98333494,0.000258,70.0005,76.5641,256.9597,103.1274,-1.8985e-05,-3.19e-06,0.0,0 STARLINK-5928,1 55958U 23037AW  24017.53502302 -.00000319  00000-0 -18985-4 0  9991,2 55958  70.0005  76.5641 0002580 256.9597 103.1274 14.98333494 47314,6950.182,96.107,573.84,570.254,0.0
55958.0,STARLINK-5928,PAYLOAD,2024-01-18 03:15:40,14.98304596,0.0001823,70.0046,75.05,204.2459,155.8615,3.5358e-05,3.29e-06,0.0,0 STARLINK-5928,1 55958U 23037AW  24018.13588453  .00000329  00000-0  35358-4 0  9991,2 55958  70.0046  75.0500 0001823 204.2459 155.8615 14.98304596 47740,6950.271,96.109,573.403,570.869,0.0
55958.0,STARLINK-5928,PAYLOAD,2024-01-18 12:52:29,14.98308319,0.0002591,70.0008,74.039,252.36,107.7276,-6.1492e-05,-8.26e-06,0.0,0 STARLINK-5928,1 55958U 23037AW  24018.53645136 -.00000826  00000-0 -61492-4 0  9999,2 55958  70.0008  74.0390 0002591 252.3600 107.7276 14.98308319 47464,6950.26,96.108,573.926,570.324,0.0
55958.0,STARLINK-5928,PAYLOAD,2024-01-19 03:17:40,14.98329385,0.0003555,69.9984,72.5211,277.785,82.2905,-9.3393e-06,-2.05e-06,0.0,0 STARLINK-5928,1 55958U 23037AW  24019.13727962 -.00000205  00000-0 -93393-5 0  9991,2 55958  69.9984  72.5211 0003555 277.7850  82.2905 14.98329385 47897,6950.195,96.107,574.531,569.589,0.0
55958.0,STARLINK-5928,PAYLOAD,2024-01-19 11:18:20,14.98340151,0.000297,69.9995,71.6796,271.8418,88.2401,0.00013839,1.559e-05,0.0,0 STARLINK-5928,1 55958U 23037AW  24019.47106785  .00001559  00000-0  13839-3 0  9998,2 55958  69.9995  71.6796 0002970 271.8418  88.2401 14.98340151 47949,6950.161,96.106,574.091,569.962,0.0
55958.0,STARLINK-5928,PAYLOAD,2024-01-19 12:54:28,14.98339545,0.0002789,69.9998,71.5126,269.1753,90.9087,0.00013082,1.469e-05,0.0,0 STARLINK-5928,1 55958U 23037AW  24019.53782835  .00001469  00000-0  13082-3 0  9991,2 55958  69.9998  71.5126 0002789 269.1753  90.9087 14.98339545 47617,6950.163,96.106,573.967,570.09,0.0
55958.0,STARLINK-5928,PAYLOAD,2024-01-20 11:20:23,14.98300323,0.0002448,70.0008,69.1574,258.0542,102.0343,9.2623e-05,1.012e-05,0.0,0 STARLINK-5928,1 55958U 23037AW  24020.47249456  .00001012  00000-0  92623-4 0  9996,2 55958  70.0008  69.1574 0002448 258.0542 102.0343 14.98300323 48092,6950.285,96.109,573.851,570.448,0.0
55958.0,STARLINK-5928,PAYLOAD,2024-01-20 12:56:31,14.98300235,0.0002935,69.9994,68.9858,272.4746,87.6077,8.8425e-05,9.61e-06,0.0,0 STARLINK-5928,1 55958U 23037AW  24020.53925566  .00000961  00000-0  88425-4 0  9993,2 55958  69.9994  68.9858 0002935 272.4746  87.6077 14.98300235 47769,6950.285,96.109,574.19,570.11,0.0
55958.0,STARLINK-5928,PAYLOAD,2024-01-21 03:21:43,14.98326292,0.0003354,69.9986,67.473,277.6664,82.4114,-0.00020372,-2.523e-05,0.0,0 STARLINK-5928,1 55958U 23037AW  24021.14009145 -.00002523  00000-0 -20372-3 0  9991,2 55958  69.9986  67.4730 0003354 277.6664  82.4114 14.98326292 48199,6950.204,96.107,574.4,569.738,0.0
